{"type": "FeatureCollection", "features": [{"type": "Feature", "geometry": {"type": "Point", "coordinates": [145.19141233, -37.97802635]}, "properties": {"stop_id": "12190", "stop_name": "Yarraman Station", "avg_delay": 22, "worst_delay": 60, "observations": 8}}, {"type": "Feature", "geometry": {"type": "Point", "coordinates": [144.91971723, -37.682979]}, "properties": {"stop_id": "15529", "stop_name": "Broadmeadows Station", "avg_delay": 520, "worst_delay": 1260, "observations": 3}}, {"type": "Feature", "geometry": {"type": "Point", "coordinates": [145.06733983, -37.89023379]}, "properties": {"stop_id": "13727", "stop_name": "Murrumbeena Station", "avg_delay": 90, "worst_delay": 180, "observations": 8}}, {"type": "Feature", "geometry": {"type": "Point", "coordinates": [144.96689012, -37.8160419]}, "properties": {"stop_id": "26555", "stop_name": "Town Hall Station", "avg_delay": 0, "worst_delay": 0, "observations": 1}}, {"type": "Feature", "geometry": {"type": "Point", "coordinates": [144.99713456, -37.82637409]}, "properties": {"stop_id": "12252", "stop_name": "East Richmond Station", "avg_delay": 120, "worst_delay": 120, "observations": 1}}, {"type": "Feature", "geometry": {"type": "Point", "coordinates": [144.95921474, -37.79981411]}, "properties": {"stop_id": "26551", "stop_name": "Parkville Station", "avg_delay": 0, "worst_delay": 180, "observations": 6}}, {"type": "Feature", "geometry": {"type": "Point", "coordinates": [145.20983503, -37.99014081]}, "properties": {"stop_id": "12187", "stop_name": "Dandenong Station", "avg_delay": -180, "worst_delay": -180, "observations": 3}}, {"type": "Feature", "geometry": {"type": "Point", "coordinates": [144.95920091, -37.79990399]}, "properties": {"stop_id": "26550", "stop_name": "Parkville Station", "avg_delay": -120, "worst_delay": -120, "observations": 6}}, {"type": "Feature", "geometry": {"type": "Point", "coordinates": [145.03647242, -37.82148541]}, "properties": {"stop_id": "12242", "stop_name": "Glenferrie Station", "avg_delay": 420, "worst_delay": 420, "observations": 2}}, {"type": "Feature", "geometry": {"type": "Point", "coordinates": [145.0394136, -37.90388422]}, "properties": {"stop_id": "14245", "stop_name": "Ormond Station", "avg_delay": 210, "worst_delay": 240, "observations": 2}}, {"type": "Feature", "geometry": {"type": "Point", "coordinates": [145.0071027, -37.71670648]}, "properties": {"stop_id": "15375", "stop_name": "Reservoir Station", "avg_delay": 60, "worst_delay": 60, "observations": 2}}, {"type": "Feature", "geometry": {"type": "Point", "coordinates": [145.15842463, -37.67338629]}, "properties": {"stop_id": "15334", "stop_name": "Diamond Creek Station", "avg_delay": 180, "worst_delay": 180, "observations": 1}}, {"type": "Feature", "geometry": {"type": "Point", "coordinates": [144.99350416, -37.86936143]}, "properties": {"stop_id": "14288", "stop_name": "Balaclava Station", "avg_delay": 0, "worst_delay": 0, "observations": 2}}, {"type": "Feature", "geometry": {"type": "Point", "coordinates": [145.19321242, -37.81798383]}, "properties": {"stop_id": "12231", "stop_name": "Mitcham Station", "avg_delay": 340, "worst_delay": 360, "observations": 3}}, {"type": "Feature", "geometry": {"type": "Point", "coordinates": [145.00825419, -37.77914244]}, "properties": {"stop_id": "13747", "stop_name": "Dennis Station", "avg_delay": 0, "worst_delay": 0, "observations": 1}}, {"type": "Feature", "geometry": {"type": "Point", "coordinates": [145.10245504, -37.91102782]}, "properties": {"stop_id": "13721", "stop_name": "Huntingdale Station", "avg_delay": -60, "worst_delay": -60, "observations": 1}}, {"type": "Feature", "geometry": {"type": "Point", "coordinates": [145.04246399, -37.87717909]}, "properties": {"stop_id": "14254", "stop_name": "Caulfield Station", "avg_delay": -45, "worst_delay": 0, "observations": 4}}, {"type": "Feature", "geometry": {"type": "Point", "coordinates": [145.01734, -37.66587124]}, "properties": {"stop_id": "15368", "stop_name": "Lalor Station", "avg_delay": -30, "worst_delay": 0, "observations": 2}}, {"type": "Feature", "geometry": {"type": "Point", "coordinates": [144.93610638, -37.79478836]}, "properties": {"stop_id": "14322", "stop_name": "Macaulay Station", "avg_delay": 90, "worst_delay": 120, "observations": 2}}, {"type": "Feature", "geometry": {"type": "Point", "coordinates": [144.88322526, -37.80175296]}, "properties": {"stop_id": "26538", "stop_name": "West Footscray Station", "avg_delay": -120, "worst_delay": -120, "observations": 3}}, {"type": "Feature", "geometry": {"type": "Point", "coordinates": [145.13538587, -38.12177051]}, "properties": {"stop_id": "11223", "stop_name": "Kananook Station", "avg_delay": 100, "worst_delay": 180, "observations": 3}}, {"type": "Feature", "geometry": {"type": "Point", "coordinates": [144.99251882, -37.81055187]}, "properties": {"stop_id": "14336", "stop_name": "North Richmond Station", "avg_delay": 150, "worst_delay": 240, "observations": 2}}, {"type": "Feature", "geometry": {"type": "Point", "coordinates": [145.26773459, -37.84141772]}, "properties": {"stop_id": "11410", "stop_name": "Bayswater Station", "avg_delay": 60, "worst_delay": 60, "observations": 1}}, {"type": "Feature", "geometry": {"type": "Point", "coordinates": [145.04912085, -37.95875571]}, "properties": {"stop_id": "26528", "stop_name": "Southland Station", "avg_delay": 40, "worst_delay": 120, "observations": 3}}, {"type": "Feature", "geometry": {"type": "Point", "coordinates": [145.09244475, -37.64382284]}, "properties": {"stop_id": "26519", "stop_name": "Middle Gorge Station", "avg_delay": -60, "worst_delay": -60, "observations": 2}}, {"type": "Feature", "geometry": {"type": "Point", "coordinates": [144.98968378, -37.82377788]}, "properties": {"stop_id": "12260", "stop_name": "Richmond Station", "avg_delay": 90, "worst_delay": 180, "observations": 2}}, {"type": "Feature", "geometry": {"type": "Point", "coordinates": [145.08149913, -37.82439954]}, "properties": {"stop_id": "12211", "stop_name": "Canterbury Station", "avg_delay": 400, "worst_delay": 420, "observations": 3}}, {"type": "Feature", "geometry": {"type": "Point", "coordinates": [144.99140899, -37.81503885]}, "properties": {"stop_id": "14338", "stop_name": "West Richmond Station", "avg_delay": 150, "worst_delay": 240, "observations": 2}}, {"type": "Feature", "geometry": {"type": "Point", "coordinates": [144.96664271, -37.81843476]}, "properties": {"stop_id": "11217", "stop_name": "Flinders Street Station", "avg_delay": 60, "worst_delay": 60, "observations": 1}}, {"type": "Feature", "geometry": {"type": "Point", "coordinates": [145.01364561, -37.85083245]}, "properties": {"stop_id": "14263", "stop_name": "Toorak Station", "avg_delay": 100, "worst_delay": 240, "observations": 3}}, {"type": "Feature", "geometry": {"type": "Point", "coordinates": [145.03716342, -37.91708494]}, "properties": {"stop_id": "14241", "stop_name": "Bentleigh Station", "avg_delay": -120, "worst_delay": -120, "observations": 1}}, {"type": "Feature", "geometry": {"type": "Point", "coordinates": [144.96137912, -37.72102514]}, "properties": {"stop_id": "14304", "stop_name": "Merlynston Station", "avg_delay": 20, "worst_delay": 60, "observations": 3}}, {"type": "Feature", "geometry": {"type": "Point", "coordinates": [144.99523279, -37.76982857]}, "properties": {"stop_id": "15388", "stop_name": "Northcote Station", "avg_delay": 180, "worst_delay": 180, "observations": 1}}, {"type": "Feature", "geometry": {"type": "Point", "coordinates": [145.0169519, -37.77912698]}, "properties": {"stop_id": "13749", "stop_name": "Fairfield Station", "avg_delay": 0, "worst_delay": 0, "observations": 1}}, {"type": "Feature", "geometry": {"type": "Point", "coordinates": [145.00099334, -37.88500706]}, "properties": {"stop_id": "14283", "stop_name": "Elsternwick Station", "avg_delay": 0, "worst_delay": 0, "observations": 2}}, {"type": "Feature", "geometry": {"type": "Point", "coordinates": [145.14086283, -37.8207377]}, "properties": {"stop_id": "12225", "stop_name": "Laburnum Station", "avg_delay": 60, "worst_delay": 60, "observations": 1}}, {"type": "Feature", "geometry": {"type": "Point", "coordinates": [145.14781539, -37.71336031]}, "properties": {"stop_id": "15333", "stop_name": "Eltham Station", "avg_delay": 150, "worst_delay": 180, "observations": 2}}, {"type": "Feature", "geometry": {"type": "Point", "coordinates": [144.972843, -37.8330506]}, "properties": {"stop_id": "26557", "stop_name": "Anzac Station", "avg_delay": -30, "worst_delay": 60, "observations": 4}}, {"type": "Feature", "geometry": {"type": "Point", "coordinates": [144.98967145, -37.82381371]}, "properties": {"stop_id": "12259", "stop_name": "Richmond Station", "avg_delay": -60, "worst_delay": -60, "observations": 1}}, {"type": "Feature", "geometry": {"type": "Point", "coordinates": [145.12183478, -37.81934528]}, "properties": {"stop_id": "12221", "stop_name": "Box Hill Station", "avg_delay": 60, "worst_delay": 60, "observations": 1}}, {"type": "Feature", "geometry": {"type": "Point", "coordinates": [145.02276093, -37.83464752]}, "properties": {"stop_id": "12264", "stop_name": "Heyington Station", "avg_delay": 120, "worst_delay": 120, "observations": 1}}, {"type": "Feature", "geometry": {"type": "Point", "coordinates": [144.939724, -37.80151139]}, "properties": {"stop_id": "26548", "stop_name": "Arden Station", "avg_delay": -60, "worst_delay": -60, "observations": 6}}, {"type": "Feature", "geometry": {"type": "Point", "coordinates": [144.70110181, -37.88330608]}, "properties": {"stop_id": "13735", "stop_name": "Hoppers Crossing Station", "avg_delay": -60, "worst_delay": -60, "observations": 2}}, {"type": "Feature", "geometry": {"type": "Point", "coordinates": [144.99148444, -37.81476978]}, "properties": {"stop_id": "14339", "stop_name": "West Richmond Station", "avg_delay": 80, "worst_delay": 180, "observations": 3}}, {"type": "Feature", "geometry": {"type": "Point", "coordinates": [144.96660025, -37.81832588]}, "properties": {"stop_id": "11216", "stop_name": "Flinders Street Station", "avg_delay": 0, "worst_delay": 0, "observations": 11}}, {"type": "Feature", "geometry": {"type": "Point", "coordinates": [145.05381339, -37.76375462]}, "properties": {"stop_id": "13756", "stop_name": "Eaglemont Station", "avg_delay": 300, "worst_delay": 300, "observations": 1}}, {"type": "Feature", "geometry": {"type": "Point", "coordinates": [145.05358503, -37.76380492]}, "properties": {"stop_id": "13757", "stop_name": "Eaglemont Station", "avg_delay": 60, "worst_delay": 60, "observations": 1}}, {"type": "Feature", "geometry": {"type": "Point", "coordinates": [144.95210524, -37.81830897]}, "properties": {"stop_id": "22188", "stop_name": "Southern Cross Station", "avg_delay": 60, "worst_delay": 120, "observations": 2}}, {"type": "Feature", "geometry": {"type": "Point", "coordinates": [145.05855399, -37.88617805]}, "properties": {"stop_id": "13730", "stop_name": "Carnegie Station", "avg_delay": -40, "worst_delay": 0, "observations": 3}}, {"type": "Feature", "geometry": {"type": "Point", "coordinates": [145.12076066, -37.92473123]}, "properties": {"stop_id": "13718", "stop_name": "Clayton Station", "avg_delay": 45, "worst_delay": 120, "observations": 8}}, {"type": "Feature", "geometry": {"type": "Point", "coordinates": [145.03293, -37.8398014]}, "properties": {"stop_id": "12265", "stop_name": "Kooyong Station", "avg_delay": -60, "worst_delay": -60, "observations": 2}}, {"type": "Feature", "geometry": {"type": "Point", "coordinates": [145.10737348, -38.03628004]}, "properties": {"stop_id": "11232", "stop_name": "Edithvale Station", "avg_delay": 100, "worst_delay": 120, "observations": 3}}, {"type": "Feature", "geometry": {"type": "Point", "coordinates": [144.92608856, -37.66103916]}, "properties": {"stop_id": "26503", "stop_name": "Coolaroo Station", "avg_delay": 300, "worst_delay": 300, "observations": 1}}, {"type": "Feature", "geometry": {"type": "Point", "coordinates": [145.06821625, -37.82576845]}, "properties": {"stop_id": "12207", "stop_name": "East Camberwell Station", "avg_delay": 400, "worst_delay": 420, "observations": 3}}, {"type": "Feature", "geometry": {"type": "Point", "coordinates": [144.91755093, -37.70488462]}, "properties": {"stop_id": "15533", "stop_name": "Glenroy Station", "avg_delay": 600, "worst_delay": 1320, "observations": 3}}, {"type": "Feature", "geometry": {"type": "Point", "coordinates": [145.02908917, -37.86625888]}, "properties": {"stop_id": "14255", "stop_name": "Malvern Station", "avg_delay": 140, "worst_delay": 240, "observations": 3}}, {"type": "Feature", "geometry": {"type": "Point", "coordinates": [145.03543471, -37.92519366]}, "properties": {"stop_id": "14236", "stop_name": "Patterson Station", "avg_delay": 120, "worst_delay": 120, "observations": 1}}, {"type": "Feature", "geometry": {"type": "Point", "coordinates": [144.74655812, -37.87023584]}, "properties": {"stop_id": "26540", "stop_name": "Williams Landing Station", "avg_delay": 0, "worst_delay": 0, "observations": 3}}, {"type": "Feature", "geometry": {"type": "Point", "coordinates": [145.01434735, -37.68032122]}, "properties": {"stop_id": "15370", "stop_name": "Thomastown Station", "avg_delay": 30, "worst_delay": 60, "observations": 2}}, {"type": "Feature", "geometry": {"type": "Point", "coordinates": [145.1015033, -37.82229958]}, "properties": {"stop_id": "26536", "stop_name": "Union Station", "avg_delay": 340, "worst_delay": 360, "observations": 3}}, {"type": "Feature", "geometry": {"type": "Point", "coordinates": [144.93057009, -37.79377201]}, "properties": {"stop_id": "15552", "stop_name": "Kensington Station", "avg_delay": 240, "worst_delay": 360, "observations": 2}}, {"type": "Feature", "geometry": {"type": "Point", "coordinates": [144.99547418, -37.7886314]}, "properties": {"stop_id": "14330", "stop_name": "Clifton Hill Station", "avg_delay": 100, "worst_delay": 240, "observations": 3}}, {"type": "Feature", "geometry": {"type": "Point", "coordinates": [144.66111459, -37.89948611]}, "properties": {"stop_id": "13732", "stop_name": "Werribee Station", "avg_delay": 180, "worst_delay": 180, "observations": 1}}, {"type": "Feature", "geometry": {"type": "Point", "coordinates": [145.06622284, -37.74319537]}, "properties": {"stop_id": "15323", "stop_name": "Rosanna Station", "avg_delay": 60, "worst_delay": 60, "observations": 1}}, {"type": "Feature", "geometry": {"type": "Point", "coordinates": [145.10239704, -37.91107194]}, "properties": {"stop_id": "13720", "stop_name": "Huntingdale Station", "avg_delay": 45, "worst_delay": 120, "observations": 4}}, {"type": "Feature", "geometry": {"type": "Point", "coordinates": [144.9274304, -37.74354828]}, "properties": {"stop_id": "15539", "stop_name": "Strathmore Station", "avg_delay": 1320, "worst_delay": 1320, "observations": 1}}, {"type": "Feature", "geometry": {"type": "Point", "coordinates": [145.10157028, -37.82234572]}, "properties": {"stop_id": "26535", "stop_name": "Union Station", "avg_delay": 0, "worst_delay": 0, "observations": 1}}, {"type": "Feature", "geometry": {"type": "Point", "coordinates": [145.3428039, -37.90799864]}, "properties": {"stop_id": "11121", "stop_name": "Tecoma Station", "avg_delay": 60, "worst_delay": 420, "observations": 4}}, {"type": "Feature", "geometry": {"type": "Point", "coordinates": [145.27004437, -38.01798764]}, "properties": {"stop_id": "12182", "stop_name": "Hallam Station", "avg_delay": 60, "worst_delay": 60, "observations": 4}}, {"type": "Feature", "geometry": {"type": "Point", "coordinates": [145.08872789, -37.82428279]}, "properties": {"stop_id": "12212", "stop_name": "Chatham Station", "avg_delay": 20, "worst_delay": 120, "observations": 3}}, {"type": "Feature", "geometry": {"type": "Point", "coordinates": [145.058518, -37.88624955]}, "properties": {"stop_id": "13729", "stop_name": "Carnegie Station", "avg_delay": 86, "worst_delay": 240, "observations": 7}}, {"type": "Feature", "geometry": {"type": "Point", "coordinates": [145.12005815, -38.06555519]}, "properties": {"stop_id": "11228", "stop_name": "Bonbeach Station", "avg_delay": 60, "worst_delay": 60, "observations": 2}}, {"type": "Feature", "geometry": {"type": "Point", "coordinates": [144.84096935, -37.86783351]}, "properties": {"stop_id": "13743", "stop_name": "Seaholme Station", "avg_delay": -30, "worst_delay": 60, "observations": 4}}, {"type": "Feature", "geometry": {"type": "Point", "coordinates": [145.08875293, -37.82419308]}, "properties": {"stop_id": "12213", "stop_name": "Chatham Station", "avg_delay": 340, "worst_delay": 360, "observations": 3}}, {"type": "Feature", "geometry": {"type": "Point", "coordinates": [144.79987058, -37.74480388]}, "properties": {"stop_id": "15361", "stop_name": "St Albans Station", "avg_delay": 60, "worst_delay": 60, "observations": 1}}, {"type": "Feature", "geometry": {"type": "Point", "coordinates": [145.29517564, -37.88152567]}, "properties": {"stop_id": "11248", "stop_name": "Ferntree Gully Station", "avg_delay": 210, "worst_delay": 420, "observations": 2}}, {"type": "Feature", "geometry": {"type": "Point", "coordinates": [144.998628, -37.75506176]}, "properties": {"stop_id": "15383", "stop_name": "Thornbury Station", "avg_delay": 30, "worst_delay": 60, "observations": 2}}, {"type": "Feature", "geometry": {"type": "Point", "coordinates": [145.14963072, -37.87630838]}, "properties": {"stop_id": "12160", "stop_name": "Syndal Station", "avg_delay": -60, "worst_delay": -60, "observations": 2}}, {"type": "Feature", "geometry": {"type": "Point", "coordinates": [144.97272697, -37.83313872]}, "properties": {"stop_id": "26556", "stop_name": "Anzac Station", "avg_delay": 20, "worst_delay": 240, "observations": 9}}, {"type": "Feature", "geometry": {"type": "Point", "coordinates": [144.86346501, -37.79933243]}, "properties": {"stop_id": "15513", "stop_name": "Tottenham Station", "avg_delay": -60, "worst_delay": -60, "observations": 3}}, {"type": "Feature", "geometry": {"type": "Point", "coordinates": [144.99662404, -37.91489663]}, "properties": {"stop_id": "14278", "stop_name": "Middle Brighton Station", "avg_delay": 60, "worst_delay": 60, "observations": 3}}, {"type": "Feature", "geometry": {"type": "Point", "coordinates": [145.20985868, -37.99010512]}, "properties": {"stop_id": "12188", "stop_name": "Dandenong Station", "avg_delay": -120, "worst_delay": 60, "observations": 4}}, {"type": "Feature", "geometry": {"type": "Point", "coordinates": [145.1748612, -37.82045851]}, "properties": {"stop_id": "12229", "stop_name": "Nunawading Station", "avg_delay": 270, "worst_delay": 360, "observations": 4}}, {"type": "Feature", "geometry": {"type": "Point", "coordinates": [145.00017937, -37.74592301]}, "properties": {"stop_id": "15382", "stop_name": "Bell Station", "avg_delay": 240, "worst_delay": 240, "observations": 2}}, {"type": "Feature", "geometry": {"type": "Point", "coordinates": [145.26781495, -37.84138285]}, "properties": {"stop_id": "11411", "stop_name": "Bayswater Station", "avg_delay": 240, "worst_delay": 420, "observations": 2}}, {"type": "Feature", "geometry": {"type": "Point", "coordinates": [145.00418728, -37.89683958]}, "properties": {"stop_id": "14282", "stop_name": "Gardenvale Station", "avg_delay": 20, "worst_delay": 60, "observations": 3}}, {"type": "Feature", "geometry": {"type": "Point", "coordinates": [145.02336616, -37.82176176]}, "properties": {"stop_id": "12244", "stop_name": "Hawthorn Station", "avg_delay": 120, "worst_delay": 120, "observations": 1}}, {"type": "Feature", "geometry": {"type": "Point", "coordinates": [145.411056, -38.06612862]}, "properties": {"stop_id": "12175", "stop_name": "Officer Station", "avg_delay": 60, "worst_delay": 60, "observations": 1}}, {"type": "Feature", "geometry": {"type": "Point", "coordinates": [144.79382451, -37.72942515]}, "properties": {"stop_id": "15358", "stop_name": "Keilor Plains Station", "avg_delay": 60, "worst_delay": 60, "observations": 3}}, {"type": "Feature", "geometry": {"type": "Point", "coordinates": [144.98969734, -37.823697]}, "properties": {"stop_id": "12261", "stop_name": "Richmond Station", "avg_delay": 240, "worst_delay": 360, "observations": 4}}, {"type": "Feature", "geometry": {"type": "Point", "coordinates": [145.02321806, -37.8217773]}, "properties": {"stop_id": "12245", "stop_name": "Hawthorn Station", "avg_delay": 340, "worst_delay": 360, "observations": 3}}, {"type": "Feature", "geometry": {"type": "Point", "coordinates": [145.24455324, -37.82841236]}, "properties": {"stop_id": "11412", "stop_name": "Heathmont Station", "avg_delay": 30, "worst_delay": 60, "observations": 2}}, {"type": "Feature", "geometry": {"type": "Point", "coordinates": [144.91587243, -37.69515821]}, "properties": {"stop_id": "15531", "stop_name": "Jacana Station", "avg_delay": 660, "worst_delay": 1260, "observations": 2}}, {"type": "Feature", "geometry": {"type": "Point", "coordinates": [145.04542471, -37.76891476]}, "properties": {"stop_id": "13754", "stop_name": "Ivanhoe Station", "avg_delay": 240, "worst_delay": 240, "observations": 1}}, {"type": "Feature", "geometry": {"type": "Point", "coordinates": [145.06076542, -37.75705622]}, "properties": {"stop_id": "13759", "stop_name": "Heidelberg Station", "avg_delay": 30, "worst_delay": 60, "observations": 2}}, {"type": "Feature", "geometry": {"type": "Point", "coordinates": [144.92154221, -37.71792311]}, "properties": {"stop_id": "15535", "stop_name": "Oak Park Station", "avg_delay": 660, "worst_delay": 1260, "observations": 2}}, {"type": "Feature", "geometry": {"type": "Point", "coordinates": [144.99295344, -37.77771117]}, "properties": {"stop_id": "15390", "stop_name": "Merri Station", "avg_delay": 180, "worst_delay": 180, "observations": 2}}, {"type": "Feature", "geometry": {"type": "Point", "coordinates": [145.04541526, -37.76884251]}, "properties": {"stop_id": "13755", "stop_name": "Ivanhoe Station", "avg_delay": 60, "worst_delay": 60, "observations": 1}}, {"type": "Feature", "geometry": {"type": "Point", "coordinates": [144.92819788, -37.73067489]}, "properties": {"stop_id": "15537", "stop_name": "Pascoe Vale Station", "avg_delay": 720, "worst_delay": 1320, "observations": 2}}, {"type": "Feature", "geometry": {"type": "Point", "coordinates": [145.48568563, -38.08051492]}, "properties": {"stop_id": "12172", "stop_name": "Pakenham Station", "avg_delay": 60, "worst_delay": 60, "observations": 1}}, {"type": "Feature", "geometry": {"type": "Point", "coordinates": [145.09743269, -37.622896]}, "properties": {"stop_id": "26511", "stop_name": "Hawkstowe Station", "avg_delay": -60, "worst_delay": -60, "observations": 2}}, {"type": "Feature", "geometry": {"type": "Point", "coordinates": [144.79978958, -37.74485644]}, "properties": {"stop_id": "15360", "stop_name": "St Albans Station", "avg_delay": 45, "worst_delay": 60, "observations": 4}}, {"type": "Feature", "geometry": {"type": "Point", "coordinates": [145.06918986, -37.72596801]}, "properties": {"stop_id": "15326", "stop_name": "Macleod Station", "avg_delay": 90, "worst_delay": 180, "observations": 2}}, {"type": "Feature", "geometry": {"type": "Point", "coordinates": [144.99302679, -37.77793772]}, "properties": {"stop_id": "15389", "stop_name": "Merri Station", "avg_delay": 30, "worst_delay": 60, "observations": 2}}, {"type": "Feature", "geometry": {"type": "Point", "coordinates": [145.12105171, -37.7152528]}, "properties": {"stop_id": "15331", "stop_name": "Montmorency Station", "avg_delay": 90, "worst_delay": 180, "observations": 2}}, {"type": "Feature", "geometry": {"type": "Point", "coordinates": [145.06737605, -37.89015328]}, "properties": {"stop_id": "13728", "stop_name": "Murrumbeena Station", "avg_delay": -45, "worst_delay": 0, "observations": 4}}, {"type": "Feature", "geometry": {"type": "Point", "coordinates": [144.93928798, -37.78818439]}, "properties": {"stop_id": "14320", "stop_name": "Flemington Bridge Station", "avg_delay": 20, "worst_delay": 60, "observations": 3}}, {"type": "Feature", "geometry": {"type": "Point", "coordinates": [144.98392753, -37.81654212]}, "properties": {"stop_id": "14340", "stop_name": "Jolimont-MCG Station", "avg_delay": 150, "worst_delay": 240, "observations": 2}}, {"type": "Feature", "geometry": {"type": "Point", "coordinates": [145.00266309, -37.90484314]}, "properties": {"stop_id": "14280", "stop_name": "North Brighton Station", "avg_delay": 60, "worst_delay": 60, "observations": 2}}, {"type": "Feature", "geometry": {"type": "Point", "coordinates": [145.0691915, -37.87680956]}, "properties": {"stop_id": "8718", "stop_name": "East Malvern Station", "avg_delay": 240, "worst_delay": 240, "observations": 1}}, {"type": "Feature", "geometry": {"type": "Point", "coordinates": [144.98977527, -37.84970629]}, "properties": {"stop_id": "14291", "stop_name": "Prahran Station", "avg_delay": 0, "worst_delay": 0, "observations": 2}}, {"type": "Feature", "geometry": {"type": "Point", "coordinates": [145.16325951, -37.95691687]}, "properties": {"stop_id": "12194", "stop_name": "Sandown Park Station", "avg_delay": 50, "worst_delay": 120, "observations": 6}}, {"type": "Feature", "geometry": {"type": "Point", "coordinates": [145.28073944, -37.79520472]}, "properties": {"stop_id": "12168", "stop_name": "Croydon Station", "avg_delay": -40, "worst_delay": 0, "observations": 3}}, {"type": "Feature", "geometry": {"type": "Point", "coordinates": [144.95176687, -37.78121969]}, "properties": {"stop_id": "14318", "stop_name": "Royal Park Station", "avg_delay": 60, "worst_delay": 60, "observations": 1}}, {"type": "Feature", "geometry": {"type": "Point", "coordinates": [145.26336215, -38.07904333]}, "properties": {"stop_id": "12186", "stop_name": "Merinda Park Station", "avg_delay": -60, "worst_delay": -60, "observations": 3}}, {"type": "Feature", "geometry": {"type": "Point", "coordinates": [145.21406065, -37.81885161]}, "properties": {"stop_id": "12234", "stop_name": "Heatherdale Station", "avg_delay": 0, "worst_delay": 60, "observations": 2}}, {"type": "Feature", "geometry": {"type": "Point", "coordinates": [145.02267878, -37.83474527]}, "properties": {"stop_id": "12263", "stop_name": "Heyington Station", "avg_delay": -60, "worst_delay": -60, "observations": 2}}, {"type": "Feature", "geometry": {"type": "Point", "coordinates": [145.2143358, -37.81874764]}, "properties": {"stop_id": "12233", "stop_name": "Heatherdale Station", "avg_delay": 360, "worst_delay": 420, "observations": 3}}, {"type": "Feature", "geometry": {"type": "Point", "coordinates": [144.99701396, -37.76398313]}, "properties": {"stop_id": "15386", "stop_name": "Croxton Station", "avg_delay": 210, "worst_delay": 240, "observations": 2}}, {"type": "Feature", "geometry": {"type": "Point", "coordinates": [145.0381136, -37.91086467]}, "properties": {"stop_id": "14242", "stop_name": "McKinnon Station", "avg_delay": 210, "worst_delay": 240, "observations": 2}}, {"type": "Feature", "geometry": {"type": "Point", "coordinates": [145.22888703, -37.81596637]}, "properties": {"stop_id": "12237", "stop_name": "Ringwood Station", "avg_delay": 132, "worst_delay": 420, "observations": 5}}, {"type": "Feature", "geometry": {"type": "Point", "coordinates": [145.14964411, -37.87622748]}, "properties": {"stop_id": "12161", "stop_name": "Syndal Station", "avg_delay": 180, "worst_delay": 240, "observations": 2}}, {"type": "Feature", "geometry": {"type": "Point", "coordinates": [145.03110716, -37.77840017]}, "properties": {"stop_id": "13751", "stop_name": "Alphington Station", "avg_delay": 0, "worst_delay": 0, "observations": 1}}, {"type": "Feature", "geometry": {"type": "Point", "coordinates": [145.2806732, -37.79512264]}, "properties": {"stop_id": "12169", "stop_name": "Croydon Station", "avg_delay": 150, "worst_delay": 300, "observations": 2}}, {"type": "Feature", "geometry": {"type": "Point", "coordinates": [144.99707413, -37.82650824]}, "properties": {"stop_id": "12251", "stop_name": "East Richmond Station", "avg_delay": -60, "worst_delay": -60, "observations": 1}}, {"type": "Feature", "geometry": {"type": "Point", "coordinates": [145.01888002, -37.85611145]}, "properties": {"stop_id": "14259", "stop_name": "Armadale Station", "avg_delay": 240, "worst_delay": 240, "observations": 1}}, {"type": "Feature", "geometry": {"type": "Point", "coordinates": [145.06961496, -37.83138777]}, "properties": {"stop_id": "11205", "stop_name": "Riversdale Station", "avg_delay": 60, "worst_delay": 60, "observations": 1}}, {"type": "Feature", "geometry": {"type": "Point", "coordinates": [144.81343676, -37.86516243]}, "properties": {"stop_id": "13740", "stop_name": "Westona Station", "avg_delay": -90, "worst_delay": 0, "observations": 4}}, {"type": "Feature", "geometry": {"type": "Point", "coordinates": [145.12308355, -38.07740878]}, "properties": {"stop_id": "11227", "stop_name": "Carrum Station", "avg_delay": 20, "worst_delay": 120, "observations": 3}}, {"type": "Feature", "geometry": {"type": "Point", "coordinates": [145.09234348, -37.64379416]}, "properties": {"stop_id": "26520", "stop_name": "Middle Gorge Station", "avg_delay": 300, "worst_delay": 300, "observations": 1}}, {"type": "Feature", "geometry": {"type": "Point", "coordinates": [145.07027413, -37.8357423]}, "properties": {"stop_id": "11203", "stop_name": "Willison Station", "avg_delay": 60, "worst_delay": 60, "observations": 1}}, {"type": "Feature", "geometry": {"type": "Point", "coordinates": [145.09733029, -37.62291238]}, "properties": {"stop_id": "26512", "stop_name": "Hawkstowe Station", "avg_delay": 300, "worst_delay": 300, "observations": 2}}, {"type": "Feature", "geometry": {"type": "Point", "coordinates": [144.926012, -37.66093868]}, "properties": {"stop_id": "26504", "stop_name": "Coolaroo Station", "avg_delay": 540, "worst_delay": 540, "observations": 1}}, {"type": "Feature", "geometry": {"type": "Point", "coordinates": [144.9729235, -37.81100921]}, "properties": {"stop_id": "10924", "stop_name": "Parliament Station", "avg_delay": 0, "worst_delay": 0, "observations": 1}}, {"type": "Feature", "geometry": {"type": "Point", "coordinates": [145.00148844, -37.93815735]}, "properties": {"stop_id": "14272", "stop_name": "Hampton Station", "avg_delay": -60, "worst_delay": -60, "observations": 2}}, {"type": "Feature", "geometry": {"type": "Point", "coordinates": [145.15326543, -37.94922649]}, "properties": {"stop_id": "13714", "stop_name": "Springvale Station", "avg_delay": 50, "worst_delay": 120, "observations": 6}}, {"type": "Feature", "geometry": {"type": "Point", "coordinates": [144.96311741, -37.80823559]}, "properties": {"stop_id": "26552", "stop_name": "State Library Station", "avg_delay": -60, "worst_delay": -60, "observations": 7}}, {"type": "Feature", "geometry": {"type": "Point", "coordinates": [145.07578248, -37.89396786]}, "properties": {"stop_id": "13726", "stop_name": "Hughesdale Station", "avg_delay": 0, "worst_delay": 0, "observations": 3}}, {"type": "Feature", "geometry": {"type": "Point", "coordinates": [144.97306221, -37.81092148]}, "properties": {"stop_id": "12200", "stop_name": "Parliament Station", "avg_delay": 180, "worst_delay": 300, "observations": 4}}, {"type": "Feature", "geometry": {"type": "Point", "coordinates": [145.00412516, -37.89661324]}, "properties": {"stop_id": "14281", "stop_name": "Gardenvale Station", "avg_delay": 0, "worst_delay": 0, "observations": 2}}, {"type": "Feature", "geometry": {"type": "Point", "coordinates": [145.24455644, -37.82827723]}, "properties": {"stop_id": "11413", "stop_name": "Heathmont Station", "avg_delay": 180, "worst_delay": 420, "observations": 2}}, {"type": "Feature", "geometry": {"type": "Point", "coordinates": [145.06970066, -37.83158744]}, "properties": {"stop_id": "11206", "stop_name": "Riversdale Station", "avg_delay": -60, "worst_delay": -60, "observations": 2}}, {"type": "Feature", "geometry": {"type": "Point", "coordinates": [145.12298052, -38.07742515]}, "properties": {"stop_id": "11226", "stop_name": "Carrum Station", "avg_delay": 60, "worst_delay": 60, "observations": 3}}, {"type": "Feature", "geometry": {"type": "Point", "coordinates": [144.96672993, -37.81608419]}, "properties": {"stop_id": "26554", "stop_name": "Town Hall Station", "avg_delay": 0, "worst_delay": 0, "observations": 1}}, {"type": "Feature", "geometry": {"type": "Point", "coordinates": [144.99708925, -37.76413761]}, "properties": {"stop_id": "15385", "stop_name": "Croxton Station", "avg_delay": 90, "worst_delay": 120, "observations": 2}}, {"type": "Feature", "geometry": {"type": "Point", "coordinates": [144.99243075, -37.78318147]}, "properties": {"stop_id": "15391", "stop_name": "Rushall Station", "avg_delay": 60, "worst_delay": 60, "observations": 1}}, {"type": "Feature", "geometry": {"type": "Point", "coordinates": [145.26348943, -38.0789641]}, "properties": {"stop_id": "26516", "stop_name": "Merinda Park Station", "avg_delay": -60, "worst_delay": -60, "observations": 3}}, {"type": "Feature", "geometry": {"type": "Point", "coordinates": [145.08134329, -37.86198555]}, "properties": {"stop_id": "11198", "stop_name": "Ashburton Station", "avg_delay": 60, "worst_delay": 60, "observations": 2}}, {"type": "Feature", "geometry": {"type": "Point", "coordinates": [145.10209059, -38.02730035]}, "properties": {"stop_id": "11234", "stop_name": "Aspendale Station", "avg_delay": 100, "worst_delay": 120, "observations": 3}}, {"type": "Feature", "geometry": {"type": "Point", "coordinates": [145.06766922, -37.64907911]}, "properties": {"stop_id": "26522", "stop_name": "South Morang Station", "avg_delay": 20, "worst_delay": 60, "observations": 3}}, {"type": "Feature", "geometry": {"type": "Point", "coordinates": [144.99198287, -37.78294854]}, "properties": {"stop_id": "15392", "stop_name": "Rushall Station", "avg_delay": 140, "worst_delay": 180, "observations": 3}}, {"type": "Feature", "geometry": {"type": "Point", "coordinates": [144.74660219, -37.87028174]}, "properties": {"stop_id": "26541", "stop_name": "Williams Landing Station", "avg_delay": -60, "worst_delay": -60, "observations": 2}}, {"type": "Feature", "geometry": {"type": "Point", "coordinates": [145.03125398, -37.77842966]}, "properties": {"stop_id": "13750", "stop_name": "Alphington Station", "avg_delay": 180, "worst_delay": 300, "observations": 2}}, {"type": "Feature", "geometry": {"type": "Point", "coordinates": [144.96190371, -37.75402664]}, "properties": {"stop_id": "14310", "stop_name": "Moreland Station", "avg_delay": 20, "worst_delay": 60, "observations": 3}}, {"type": "Feature", "geometry": {"type": "Point", "coordinates": [145.00271513, -37.72842883]}, "properties": {"stop_id": "15378", "stop_name": "Regent Station", "avg_delay": 300, "worst_delay": 300, "observations": 1}}, {"type": "Feature", "geometry": {"type": "Point", "coordinates": [144.99538922, -37.78841367]}, "properties": {"stop_id": "14331", "stop_name": "Clifton Hill Station", "avg_delay": 120, "worst_delay": 120, "observations": 1}}, {"type": "Feature", "geometry": {"type": "Point", "coordinates": [144.98921409, -37.92635018]}, "properties": {"stop_id": "14275", "stop_name": "Brighton Beach Station", "avg_delay": -60, "worst_delay": -60, "observations": 2}}, {"type": "Feature", "geometry": {"type": "Point", "coordinates": [144.83009787, -37.86720101]}, "properties": {"stop_id": "13742", "stop_name": "Altona Station", "avg_delay": -30, "worst_delay": 60, "observations": 4}}, {"type": "Feature", "geometry": {"type": "Point", "coordinates": [144.96285634, -37.73336091]}, "properties": {"stop_id": "14306", "stop_name": "Batman Station", "avg_delay": 60, "worst_delay": 60, "observations": 3}}, {"type": "Feature", "geometry": {"type": "Point", "coordinates": [145.08053426, -37.85154564]}, "properties": {"stop_id": "11199", "stop_name": "Burwood Station", "avg_delay": 0, "worst_delay": 0, "observations": 2}}, {"type": "Feature", "geometry": {"type": "Point", "coordinates": [145.05825073, -37.82669496]}, "properties": {"stop_id": "11207", "stop_name": "Camberwell Station", "avg_delay": -60, "worst_delay": -60, "observations": 1}}, {"type": "Feature", "geometry": {"type": "Point", "coordinates": [145.13528348, -38.12175987]}, "properties": {"stop_id": "11222", "stop_name": "Kananook Station", "avg_delay": 20, "worst_delay": 60, "observations": 3}}, {"type": "Feature", "geometry": {"type": "Point", "coordinates": [144.8328035, -37.78837275]}, "properties": {"stop_id": "26531", "stop_name": "Sunshine Station", "avg_delay": 0, "worst_delay": 0, "observations": 3}}, {"type": "Feature", "geometry": {"type": "Point", "coordinates": [145.17594686, -37.96625233]}, "properties": {"stop_id": "12193", "stop_name": "Noble Park Station", "avg_delay": 0, "worst_delay": 0, "observations": 5}}, {"type": "Feature", "geometry": {"type": "Point", "coordinates": [144.94230306, -37.80720684]}, "properties": {"stop_id": "14324", "stop_name": "North Melbourne Station", "avg_delay": 300, "worst_delay": 1320, "observations": 6}}, {"type": "Feature", "geometry": {"type": "Point", "coordinates": [144.77394158, -37.70077275]}, "properties": {"stop_id": "15355", "stop_name": "Watergardens Station", "avg_delay": -60, "worst_delay": -60, "observations": 1}}, {"type": "Feature", "geometry": {"type": "Point", "coordinates": [144.91617026, -37.75617343]}, "properties": {"stop_id": "15544", "stop_name": "Essendon Station", "avg_delay": 560, "worst_delay": 1320, "observations": 3}}, {"type": "Feature", "geometry": {"type": "Point", "coordinates": [145.06086541, -37.75713898]}, "properties": {"stop_id": "13758", "stop_name": "Heidelberg Station", "avg_delay": 180, "worst_delay": 300, "observations": 2}}, {"type": "Feature", "geometry": {"type": "Point", "coordinates": [144.90207529, -37.80146849]}, "properties": {"stop_id": "15519", "stop_name": "Footscray Station", "avg_delay": -60, "worst_delay": -60, "observations": 7}}, {"type": "Feature", "geometry": {"type": "Point", "coordinates": [145.04202342, -37.88995045]}, "properties": {"stop_id": "14248", "stop_name": "Glen Huntly Station", "avg_delay": 280, "worst_delay": 300, "observations": 3}}, {"type": "Feature", "geometry": {"type": "Point", "coordinates": [145.03146574, -37.65213923]}, "properties": {"stop_id": "15367", "stop_name": "Epping Station", "avg_delay": 320, "worst_delay": 360, "observations": 3}}, {"type": "Feature", "geometry": {"type": "Point", "coordinates": [144.88388648, -37.80166571]}, "properties": {"stop_id": "15514", "stop_name": "West Footscray Station", "avg_delay": 100, "worst_delay": 180, "observations": 3}}, {"type": "Feature", "geometry": {"type": "Point", "coordinates": [145.01697243, -37.77920843]}, "properties": {"stop_id": "13748", "stop_name": "Fairfield Station", "avg_delay": 300, "worst_delay": 300, "observations": 1}}, {"type": "Feature", "geometry": {"type": "Point", "coordinates": [145.04231101, -37.8773748]}, "properties": {"stop_id": "14252", "stop_name": "Caulfield Station", "avg_delay": -20, "worst_delay": 0, "observations": 3}}, {"type": "Feature", "geometry": {"type": "Point", "coordinates": [145.05843716, -37.8265178]}, "properties": {"stop_id": "11209", "stop_name": "Camberwell Station", "avg_delay": 400, "worst_delay": 420, "observations": 3}}, {"type": "Feature", "geometry": {"type": "Point", "coordinates": [144.96340194, -37.74202173]}, "properties": {"stop_id": "14308", "stop_name": "Coburg Station", "avg_delay": 0, "worst_delay": 0, "observations": 3}}, {"type": "Feature", "geometry": {"type": "Point", "coordinates": [145.33121134, -37.90355406]}, "properties": {"stop_id": "11122", "stop_name": "Upwey Station", "avg_delay": -60, "worst_delay": -60, "observations": 2}}, {"type": "Feature", "geometry": {"type": "Point", "coordinates": [144.81114215, -37.75973882]}, "properties": {"stop_id": "15362", "stop_name": "Ginifer Station", "avg_delay": 60, "worst_delay": 60, "observations": 3}}, {"type": "Feature", "geometry": {"type": "Point", "coordinates": [145.30707772, -37.89256606]}, "properties": {"stop_id": "11245", "stop_name": "Upper Ferntree Gully Station", "avg_delay": -120, "worst_delay": -120, "observations": 2}}, {"type": "Feature", "geometry": {"type": "Point", "coordinates": [144.86344464, -37.79925095]}, "properties": {"stop_id": "15512", "stop_name": "Tottenham Station", "avg_delay": 140, "worst_delay": 240, "observations": 3}}, {"type": "Feature", "geometry": {"type": "Point", "coordinates": [144.93544749, -37.63828604]}, "properties": {"stop_id": "40218", "stop_name": "Roxburgh Park Station", "avg_delay": 520, "worst_delay": 1260, "observations": 3}}, {"type": "Feature", "geometry": {"type": "Point", "coordinates": [145.07045305, -37.83585338]}, "properties": {"stop_id": "11204", "stop_name": "Willison Station", "avg_delay": -60, "worst_delay": -60, "observations": 2}}, {"type": "Feature", "geometry": {"type": "Point", "coordinates": [145.24938669, -38.05744197]}, "properties": {"stop_id": "26514", "stop_name": "Lynbrook Station", "avg_delay": -60, "worst_delay": -60, "observations": 3}}, {"type": "Feature", "geometry": {"type": "Point", "coordinates": [145.10750992, -38.03629124]}, "properties": {"stop_id": "11233", "stop_name": "Edithvale Station", "avg_delay": 60, "worst_delay": 60, "observations": 2}}, {"type": "Feature", "geometry": {"type": "Point", "coordinates": [145.01365939, -37.85074257]}, "properties": {"stop_id": "14264", "stop_name": "Toorak Station", "avg_delay": 0, "worst_delay": 0, "observations": 1}}, {"type": "Feature", "geometry": {"type": "Point", "coordinates": [145.12826368, -38.10405762]}, "properties": {"stop_id": "11225", "stop_name": "Seaford Station", "avg_delay": 30, "worst_delay": 120, "observations": 2}}, {"type": "Feature", "geometry": {"type": "Point", "coordinates": [145.01425692, -37.68031068]}, "properties": {"stop_id": "26534", "stop_name": "Thomastown Station", "avg_delay": 270, "worst_delay": 300, "observations": 2}}, {"type": "Feature", "geometry": {"type": "Point", "coordinates": [144.79377353, -37.72961344]}, "properties": {"stop_id": "15359", "stop_name": "Keilor Plains Station", "avg_delay": 40, "worst_delay": 60, "observations": 3}}, {"type": "Feature", "geometry": {"type": "Point", "coordinates": [145.03147493, -37.65222049]}, "properties": {"stop_id": "15366", "stop_name": "Epping Station", "avg_delay": -30, "worst_delay": 0, "observations": 2}}, {"type": "Feature", "geometry": {"type": "Point", "coordinates": [144.77206432, -37.86391788]}, "properties": {"stop_id": "26513", "stop_name": "Laverton Station", "avg_delay": -40, "worst_delay": 0, "observations": 3}}, {"type": "Feature", "geometry": {"type": "Point", "coordinates": [145.35509837, -37.90908138]}, "properties": {"stop_id": "11120", "stop_name": "Belgrave Station", "avg_delay": 120, "worst_delay": 120, "observations": 1}}, {"type": "Feature", "geometry": {"type": "Point", "coordinates": [144.99222644, -37.83852848]}, "properties": {"stop_id": "14295", "stop_name": "South Yarra Station", "avg_delay": 240, "worst_delay": 240, "observations": 1}}, {"type": "Feature", "geometry": {"type": "Point", "coordinates": [145.04212894, -37.87738078]}, "properties": {"stop_id": "14251", "stop_name": "Caulfield Station", "avg_delay": 270, "worst_delay": 300, "observations": 2}}, {"type": "Feature", "geometry": {"type": "Point", "coordinates": [145.03697108, -37.91704568]}, "properties": {"stop_id": "14239", "stop_name": "Bentleigh Station", "avg_delay": 200, "worst_delay": 240, "observations": 3}}, {"type": "Feature", "geometry": {"type": "Point", "coordinates": [145.04904026, -37.95879042]}, "properties": {"stop_id": "26527", "stop_name": "Southland Station", "avg_delay": 40, "worst_delay": 60, "observations": 3}}, {"type": "Feature", "geometry": {"type": "Point", "coordinates": [144.77393431, -37.70101593]}, "properties": {"stop_id": "15357", "stop_name": "Watergardens Station", "avg_delay": 40, "worst_delay": 60, "observations": 3}}, {"type": "Feature", "geometry": {"type": "Point", "coordinates": [145.12817524, -38.10394807]}, "properties": {"stop_id": "11224", "stop_name": "Seaford Station", "avg_delay": 90, "worst_delay": 120, "observations": 4}}, {"type": "Feature", "geometry": {"type": "Point", "coordinates": [145.04169943, -37.84937398]}, "properties": {"stop_id": "12267", "stop_name": "Tooronga Station", "avg_delay": -60, "worst_delay": -60, "observations": 2}}, {"type": "Feature", "geometry": {"type": "Point", "coordinates": [145.13809465, -37.93797487]}, "properties": {"stop_id": "13716", "stop_name": "Westall Station", "avg_delay": 77, "worst_delay": 120, "observations": 7}}, {"type": "Feature", "geometry": {"type": "Point", "coordinates": [144.99928896, -37.78065769]}, "properties": {"stop_id": "13744", "stop_name": "Westgarth Station", "avg_delay": 210, "worst_delay": 300, "observations": 2}}, {"type": "Feature", "geometry": {"type": "Point", "coordinates": [144.99250612, -37.81018217]}, "properties": {"stop_id": "14337", "stop_name": "North Richmond Station", "avg_delay": 80, "worst_delay": 180, "observations": 3}}, {"type": "Feature", "geometry": {"type": "Point", "coordinates": [145.43814277, -38.07136724]}, "properties": {"stop_id": "26501", "stop_name": "Cardinia Road Station", "avg_delay": -20, "worst_delay": 60, "observations": 3}}, {"type": "Feature", "geometry": {"type": "Point", "coordinates": [145.00047152, -37.73886263]}, "properties": {"stop_id": "15380", "stop_name": "Preston Station", "avg_delay": 240, "worst_delay": 240, "observations": 1}}, {"type": "Feature", "geometry": {"type": "Point", "coordinates": [144.95516356, -37.81204489]}, "properties": {"stop_id": "12196", "stop_name": "Flagstaff Station", "avg_delay": 120, "worst_delay": 240, "observations": 4}}, {"type": "Feature", "geometry": {"type": "Point", "coordinates": [144.99212532, -37.85608165]}, "properties": {"stop_id": "14290", "stop_name": "Windsor Station", "avg_delay": -60, "worst_delay": -60, "observations": 2}}, {"type": "Feature", "geometry": {"type": "Point", "coordinates": [145.00259878, -37.90469786]}, "properties": {"stop_id": "14279", "stop_name": "North Brighton Station", "avg_delay": 0, "worst_delay": 0, "observations": 3}}, {"type": "Feature", "geometry": {"type": "Point", "coordinates": [145.06824844, -37.82584107]}, "properties": {"stop_id": "12206", "stop_name": "East Camberwell Station", "avg_delay": -60, "worst_delay": -60, "observations": 1}}, {"type": "Feature", "geometry": {"type": "Point", "coordinates": [144.99444923, -37.79923889]}, "properties": {"stop_id": "14332", "stop_name": "Victoria Park Station", "avg_delay": 30, "worst_delay": 60, "observations": 2}}, {"type": "Feature", "geometry": {"type": "Point", "coordinates": [145.08809514, -37.90024252]}, "properties": {"stop_id": "13722", "stop_name": "Oakleigh Station", "avg_delay": 52, "worst_delay": 120, "observations": 8}}, {"type": "Feature", "geometry": {"type": "Point", "coordinates": [144.95874848, -37.77507769]}, "properties": {"stop_id": "14316", "stop_name": "Jewell Station", "avg_delay": 20, "worst_delay": 60, "observations": 3}}, {"type": "Feature", "geometry": {"type": "Point", "coordinates": [144.96326772, -37.80813907]}, "properties": {"stop_id": "26553", "stop_name": "State Library Station", "avg_delay": -50, "worst_delay": 120, "observations": 6}}, {"type": "Feature", "geometry": {"type": "Point", "coordinates": [145.01175821, -37.69575118]}, "properties": {"stop_id": "15371", "stop_name": "Keon Park Station", "avg_delay": 60, "worst_delay": 60, "observations": 1}}, {"type": "Feature", "geometry": {"type": "Point", "coordinates": [145.12017209, -38.06555701]}, "properties": {"stop_id": "11229", "stop_name": "Bonbeach Station", "avg_delay": 0, "worst_delay": 0, "observations": 1}}, {"type": "Feature", "geometry": {"type": "Point", "coordinates": [144.89145843, -37.80258556]}, "properties": {"stop_id": "15517", "stop_name": "Middle Footscray Station", "avg_delay": -60, "worst_delay": -60, "observations": 6}}, {"type": "Feature", "geometry": {"type": "Point", "coordinates": [145.17487078, -37.82053075]}, "properties": {"stop_id": "12230", "stop_name": "Nunawading Station", "avg_delay": 30, "worst_delay": 60, "observations": 2}}, {"type": "Feature", "geometry": {"type": "Point", "coordinates": [145.4381671, -38.07129547]}, "properties": {"stop_id": "26502", "stop_name": "Cardinia Road Station", "avg_delay": 60, "worst_delay": 60, "observations": 1}}, {"type": "Feature", "geometry": {"type": "Point", "coordinates": [145.30378076, -38.02759031]}, "properties": {"stop_id": "12180", "stop_name": "Narre Warren Station", "avg_delay": 60, "worst_delay": 60, "observations": 3}}, {"type": "Feature", "geometry": {"type": "Point", "coordinates": [144.99358296, -37.86938981]}, "properties": {"stop_id": "14287", "stop_name": "Balaclava Station", "avg_delay": 0, "worst_delay": 0, "observations": 2}}, {"type": "Feature", "geometry": {"type": "Point", "coordinates": [145.04590799, -37.82254356]}, "properties": {"stop_id": "12238", "stop_name": "Auburn Station", "avg_delay": 30, "worst_delay": 120, "observations": 2}}, {"type": "Feature", "geometry": {"type": "Point", "coordinates": [145.03645772, -37.82161133]}, "properties": {"stop_id": "12241", "stop_name": "Glenferrie Station", "avg_delay": 30, "worst_delay": 120, "observations": 2}}, {"type": "Feature", "geometry": {"type": "Point", "coordinates": [144.95201366, -37.81833441]}, "properties": {"stop_id": "22189", "stop_name": "Southern Cross Station", "avg_delay": 180, "worst_delay": 180, "observations": 2}}, {"type": "Feature", "geometry": {"type": "Point", "coordinates": [145.41100885, -38.06620008]}, "properties": {"stop_id": "12174", "stop_name": "Officer Station", "avg_delay": -20, "worst_delay": 60, "observations": 3}}, {"type": "Feature", "geometry": {"type": "Point", "coordinates": [144.99634652, -37.91506312]}, "properties": {"stop_id": "14277", "stop_name": "Middle Brighton Station", "avg_delay": 0, "worst_delay": 0, "observations": 1}}, {"type": "Feature", "geometry": {"type": "Point", "coordinates": [145.15818261, -37.67354473]}, "properties": {"stop_id": "15335", "stop_name": "Diamond Creek Station", "avg_delay": 60, "worst_delay": 60, "observations": 1}}, {"type": "Feature", "geometry": {"type": "Point", "coordinates": [145.00827495, -37.77921489]}, "properties": {"stop_id": "13746", "stop_name": "Dennis Station", "avg_delay": 300, "worst_delay": 300, "observations": 1}}, {"type": "Feature", "geometry": {"type": "Point", "coordinates": [144.92090364, -37.74724528]}, "properties": {"stop_id": "15541", "stop_name": "Glenbervie Station", "avg_delay": 240, "worst_delay": 360, "observations": 2}}, {"type": "Feature", "geometry": {"type": "Point", "coordinates": [145.15006717, -37.82019776]}, "properties": {"stop_id": "12226", "stop_name": "Blackburn Station", "avg_delay": 60, "worst_delay": 60, "observations": 1}}, {"type": "Feature", "geometry": {"type": "Point", "coordinates": [145.12111023, -37.71518163]}, "properties": {"stop_id": "26521", "stop_name": "Montmorency Station", "avg_delay": 120, "worst_delay": 120, "observations": 1}}, {"type": "Feature", "geometry": {"type": "Point", "coordinates": [145.03682879, -37.93437282]}, "properties": {"stop_id": "14235", "stop_name": "Moorabbin Station", "avg_delay": 60, "worst_delay": 60, "observations": 1}}, {"type": "Feature", "geometry": {"type": "Point", "coordinates": [144.72797158, -37.5792207]}, "properties": {"stop_id": "26529", "stop_name": "Sunbury Station", "avg_delay": 0, "worst_delay": 0, "observations": 1}}, {"type": "Feature", "geometry": {"type": "Point", "coordinates": [145.12619247, -38.14270218]}, "properties": {"stop_id": "11221", "stop_name": "Frankston Station", "avg_delay": 120, "worst_delay": 120, "observations": 1}}, {"type": "Feature", "geometry": {"type": "Point", "coordinates": [145.03315861, -37.83975115]}, "properties": {"stop_id": "12266", "stop_name": "Kooyong Station", "avg_delay": 120, "worst_delay": 120, "observations": 1}}, {"type": "Feature", "geometry": {"type": "Point", "coordinates": [144.76090332, -37.86650861]}, "properties": {"stop_id": "13738", "stop_name": "Aircraft Station", "avg_delay": -60, "worst_delay": -60, "observations": 3}}, {"type": "Feature", "geometry": {"type": "Point", "coordinates": [144.99438648, -37.79903956]}, "properties": {"stop_id": "14333", "stop_name": "Victoria Park Station", "avg_delay": 90, "worst_delay": 180, "observations": 2}}, {"type": "Feature", "geometry": {"type": "Point", "coordinates": [145.00185687, -37.84463109]}, "properties": {"stop_id": "14268", "stop_name": "Hawksburn Station", "avg_delay": 0, "worst_delay": 0, "observations": 3}}, {"type": "Feature", "geometry": {"type": "Point", "coordinates": [145.00170847, -37.84465561]}, "properties": {"stop_id": "14267", "stop_name": "Hawksburn Station", "avg_delay": 240, "worst_delay": 240, "observations": 1}}, {"type": "Feature", "geometry": {"type": "Point", "coordinates": [145.08376908, -37.71102067]}, "properties": {"stop_id": "15327", "stop_name": "Watsonia Station", "avg_delay": 80, "worst_delay": 180, "observations": 3}}, {"type": "Feature", "geometry": {"type": "Point", "coordinates": [144.96057781, -37.71466691]}, "properties": {"stop_id": "14302", "stop_name": "Fawkner Station", "avg_delay": 20, "worst_delay": 60, "observations": 3}}, {"type": "Feature", "geometry": {"type": "Point", "coordinates": [145.07576971, -37.89402172]}, "properties": {"stop_id": "13725", "stop_name": "Hughesdale Station", "avg_delay": 80, "worst_delay": 180, "observations": 6}}, {"type": "Feature", "geometry": {"type": "Point", "coordinates": [145.28473574, -37.86052901]}, "properties": {"stop_id": "11249", "stop_name": "Boronia Station", "avg_delay": 20, "worst_delay": 60, "observations": 3}}, {"type": "Feature", "geometry": {"type": "Point", "coordinates": [145.087199, -38.00589057]}, "properties": {"stop_id": "11236", "stop_name": "Mordialloc Station", "avg_delay": 40, "worst_delay": 60, "observations": 3}}, {"type": "Feature", "geometry": {"type": "Point", "coordinates": [144.98954933, -37.82412704]}, "properties": {"stop_id": "12254", "stop_name": "Richmond Station", "avg_delay": 0, "worst_delay": 0, "observations": 1}}, {"type": "Feature", "geometry": {"type": "Point", "coordinates": [145.00766508, -37.82769725]}, "properties": {"stop_id": "12247", "stop_name": "Burnley Station", "avg_delay": -60, "worst_delay": -60, "observations": 2}}, {"type": "Feature", "geometry": {"type": "Point", "coordinates": [145.03854407, -37.77496454]}, "properties": {"stop_id": "13752", "stop_name": "Darebin Station", "avg_delay": 210, "worst_delay": 300, "observations": 2}}, {"type": "Feature", "geometry": {"type": "Point", "coordinates": [145.34515871, -38.0397965]}, "properties": {"stop_id": "12179", "stop_name": "Berwick Station", "avg_delay": -180, "worst_delay": -180, "observations": 2}}, {"type": "Feature", "geometry": {"type": "Point", "coordinates": [145.10805466, -37.70395099]}, "properties": {"stop_id": "15329", "stop_name": "Greensborough Station", "avg_delay": 90, "worst_delay": 180, "observations": 2}}, {"type": "Feature", "geometry": {"type": "Point", "coordinates": [144.719973, -37.62721575]}, "properties": {"stop_id": "26505", "stop_name": "Diggers Rest Station", "avg_delay": -60, "worst_delay": -60, "observations": 4}}, {"type": "Feature", "geometry": {"type": "Point", "coordinates": [144.96249185, -37.80991898]}, "properties": {"stop_id": "12198", "stop_name": "Melbourne Central Station", "avg_delay": 240, "worst_delay": 240, "observations": 2}}, {"type": "Feature", "geometry": {"type": "Point", "coordinates": [144.966736, -37.81876079]}, "properties": {"stop_id": "12203", "stop_name": "Flinders Street Station", "avg_delay": 60, "worst_delay": 60, "observations": 1}}, {"type": "Feature", "geometry": {"type": "Point", "coordinates": [145.11201245, -37.87353005]}, "properties": {"stop_id": "11219", "stop_name": "Jordanville Station", "avg_delay": 240, "worst_delay": 240, "observations": 1}}, {"type": "Feature", "geometry": {"type": "Point", "coordinates": [144.90207784, -37.80137842]}, "properties": {"stop_id": "15518", "stop_name": "Footscray Station", "avg_delay": 60, "worst_delay": 240, "observations": 6}}, {"type": "Feature", "geometry": {"type": "Point", "coordinates": [145.36611771, -38.05090406]}, "properties": {"stop_id": "12177", "stop_name": "Beaconsfield Station", "avg_delay": 60, "worst_delay": 60, "observations": 1}}, {"type": "Feature", "geometry": {"type": "Point", "coordinates": [145.36607033, -38.05098451]}, "properties": {"stop_id": "12176", "stop_name": "Beaconsfield Station", "avg_delay": -60, "worst_delay": -60, "observations": 2}}, {"type": "Feature", "geometry": {"type": "Point", "coordinates": [145.24958833, -38.05758916]}, "properties": {"stop_id": "26515", "stop_name": "Lynbrook Station", "avg_delay": -105, "worst_delay": -60, "observations": 4}}, {"type": "Feature", "geometry": {"type": "Point", "coordinates": [145.29513821, -37.88166932]}, "properties": {"stop_id": "11247", "stop_name": "Ferntree Gully Station", "avg_delay": -120, "worst_delay": -120, "observations": 2}}, {"type": "Feature", "geometry": {"type": "Point", "coordinates": [144.99232817, -37.83854824]}, "properties": {"stop_id": "14296", "stop_name": "South Yarra Station", "avg_delay": 0, "worst_delay": 0, "observations": 2}}, {"type": "Feature", "geometry": {"type": "Point", "coordinates": [144.70104751, -37.88322392]}, "properties": {"stop_id": "13734", "stop_name": "Hoppers Crossing Station", "avg_delay": -60, "worst_delay": -60, "observations": 3}}, {"type": "Feature", "geometry": {"type": "Point", "coordinates": [145.12091918, -37.92476079]}, "properties": {"stop_id": "13719", "stop_name": "Clayton Station", "avg_delay": 45, "worst_delay": 60, "observations": 4}}, {"type": "Feature", "geometry": {"type": "Point", "coordinates": [144.96251307, -37.80997342]}, "properties": {"stop_id": "10922", "stop_name": "Melbourne Central Station", "avg_delay": 60, "worst_delay": 120, "observations": 2}}, {"type": "Feature", "geometry": {"type": "Point", "coordinates": [145.00029087, -37.745997]}, "properties": {"stop_id": "15381", "stop_name": "Bell Station", "avg_delay": -30, "worst_delay": 0, "observations": 2}}, {"type": "Feature", "geometry": {"type": "Point", "coordinates": [145.11654487, -38.05320706]}, "properties": {"stop_id": "11230", "stop_name": "Chelsea Station", "avg_delay": 60, "worst_delay": 60, "observations": 2}}, {"type": "Feature", "geometry": {"type": "Point", "coordinates": [145.00948212, -37.70791498]}, "properties": {"stop_id": "15373", "stop_name": "Ruthven Station", "avg_delay": 30, "worst_delay": 60, "observations": 2}}, {"type": "Feature", "geometry": {"type": "Point", "coordinates": [144.98957425, -37.82404636]}, "properties": {"stop_id": "12255", "stop_name": "Richmond Station", "avg_delay": 210, "worst_delay": 240, "observations": 2}}, {"type": "Feature", "geometry": {"type": "Point", "coordinates": [145.12754247, -37.87531919]}, "properties": {"stop_id": "12162", "stop_name": "Mount Waverley Station", "avg_delay": -120, "worst_delay": -120, "observations": 2}}, {"type": "Feature", "geometry": {"type": "Point", "coordinates": [144.77203567, -37.86373711]}, "properties": {"stop_id": "13736", "stop_name": "Laverton Station", "avg_delay": -60, "worst_delay": -60, "observations": 1}}, {"type": "Feature", "geometry": {"type": "Point", "coordinates": [145.00280441, -37.72848442]}, "properties": {"stop_id": "15377", "stop_name": "Regent Station", "avg_delay": 30, "worst_delay": 60, "observations": 2}}, {"type": "Feature", "geometry": {"type": "Point", "coordinates": [145.03568143, -37.92490039]}, "properties": {"stop_id": "14238", "stop_name": "Patterson Station", "avg_delay": 60, "worst_delay": 60, "observations": 1}}, {"type": "Feature", "geometry": {"type": "Point", "coordinates": [145.02951007, -37.86624791]}, "properties": {"stop_id": "14258", "stop_name": "Malvern Station", "avg_delay": -60, "worst_delay": 0, "observations": 4}}, {"type": "Feature", "geometry": {"type": "Point", "coordinates": [144.93969369, -37.80137568]}, "properties": {"stop_id": "26549", "stop_name": "Arden Station", "avg_delay": 20, "worst_delay": 180, "observations": 6}}, {"type": "Feature", "geometry": {"type": "Point", "coordinates": [145.00942567, -37.70790501]}, "properties": {"stop_id": "15374", "stop_name": "Ruthven Station", "avg_delay": 300, "worst_delay": 300, "observations": 2}}, {"type": "Feature", "geometry": {"type": "Point", "coordinates": [144.81346134, -37.8650998]}, "properties": {"stop_id": "13741", "stop_name": "Westona Station", "avg_delay": -45, "worst_delay": 0, "observations": 4}}, {"type": "Feature", "geometry": {"type": "Point", "coordinates": [145.10815762, -37.70391659]}, "properties": {"stop_id": "15330", "stop_name": "Greensborough Station", "avg_delay": 180, "worst_delay": 180, "observations": 1}}, {"type": "Feature", "geometry": {"type": "Point", "coordinates": [145.05442877, -37.9663684]}, "properties": {"stop_id": "11244", "stop_name": "Cheltenham Station", "avg_delay": 80, "worst_delay": 120, "observations": 3}}, {"type": "Feature", "geometry": {"type": "Point", "coordinates": [144.83287291, -37.78832897]}, "properties": {"stop_id": "26530", "stop_name": "Sunshine Station", "avg_delay": 120, "worst_delay": 120, "observations": 2}}, {"type": "Feature", "geometry": {"type": "Point", "coordinates": [144.76092359, -37.8665901]}, "properties": {"stop_id": "13739", "stop_name": "Aircraft Station", "avg_delay": -60, "worst_delay": -60, "observations": 1}}, {"type": "Feature", "geometry": {"type": "Point", "coordinates": [145.15008078, -37.82010785]}, "properties": {"stop_id": "12227", "stop_name": "Blackburn Station", "avg_delay": 270, "worst_delay": 360, "observations": 4}}, {"type": "Feature", "geometry": {"type": "Point", "coordinates": [145.19196721, -37.63957765]}, "properties": {"stop_id": "15337", "stop_name": "Hurstbridge Station", "avg_delay": 180, "worst_delay": 180, "observations": 1}}, {"type": "Feature", "geometry": {"type": "Point", "coordinates": [144.89144989, -37.80248627]}, "properties": {"stop_id": "15516", "stop_name": "Middle Footscray Station", "avg_delay": 15, "worst_delay": 180, "observations": 4}}, {"type": "Feature", "geometry": {"type": "Point", "coordinates": [145.01721583, -37.66585113]}, "properties": {"stop_id": "15369", "stop_name": "Lalor Station", "avg_delay": 300, "worst_delay": 300, "observations": 2}}, {"type": "Feature", "geometry": {"type": "Point", "coordinates": [145.08153203, -37.82444513]}, "properties": {"stop_id": "12210", "stop_name": "Canterbury Station", "avg_delay": 30, "worst_delay": 120, "observations": 2}}, {"type": "Feature", "geometry": {"type": "Point", "coordinates": [145.09037513, -37.87450571]}, "properties": {"stop_id": "8763", "stop_name": "Holmesglen Station", "avg_delay": -60, "worst_delay": -60, "observations": 2}}, {"type": "Feature", "geometry": {"type": "Point", "coordinates": [145.05133398, -37.85294033]}, "properties": {"stop_id": "5804", "stop_name": "Gardiner Station", "avg_delay": 300, "worst_delay": 300, "observations": 1}}, {"type": "Feature", "geometry": {"type": "Point", "coordinates": [144.82434525, -37.77709648]}, "properties": {"stop_id": "15364", "stop_name": "Albion Station", "avg_delay": 60, "worst_delay": 60, "observations": 1}}, {"type": "Feature", "geometry": {"type": "Point", "coordinates": [144.99512439, -37.87585045]}, "properties": {"stop_id": "14285", "stop_name": "Ripponlea Station", "avg_delay": 0, "worst_delay": 0, "observations": 2}}, {"type": "Feature", "geometry": {"type": "Point", "coordinates": [145.06608639, -37.9832323]}, "properties": {"stop_id": "11240", "stop_name": "Mentone Station", "avg_delay": 60, "worst_delay": 60, "observations": 1}}, {"type": "Feature", "geometry": {"type": "Point", "coordinates": [144.99373379, -37.80427333]}, "properties": {"stop_id": "14334", "stop_name": "Collingwood Station", "avg_delay": 120, "worst_delay": 240, "observations": 3}}, {"type": "Feature", "geometry": {"type": "Point", "coordinates": [144.99528177, -37.87591621]}, "properties": {"stop_id": "14286", "stop_name": "Ripponlea Station", "avg_delay": 0, "worst_delay": 0, "observations": 2}}, {"type": "Feature", "geometry": {"type": "Point", "coordinates": [145.04593355, -37.82243585]}, "properties": {"stop_id": "12239", "stop_name": "Auburn Station", "avg_delay": 400, "worst_delay": 420, "observations": 3}}, {"type": "Feature", "geometry": {"type": "Point", "coordinates": [145.13813059, -37.93790335]}, "properties": {"stop_id": "13717", "stop_name": "Westall Station", "avg_delay": -24, "worst_delay": 0, "observations": 5}}, {"type": "Feature", "geometry": {"type": "Point", "coordinates": [144.98960929, -37.82401091]}, "properties": {"stop_id": "12256", "stop_name": "Richmond Station", "avg_delay": 0, "worst_delay": 0, "observations": 3}}, {"type": "Feature", "geometry": {"type": "Point", "coordinates": [145.02933019, -37.8661728]}, "properties": {"stop_id": "14257", "stop_name": "Malvern Station", "avg_delay": 75, "worst_delay": 180, "observations": 8}}, {"type": "Feature", "geometry": {"type": "Point", "coordinates": [145.16335232, -37.95684623]}, "properties": {"stop_id": "13713", "stop_name": "Sandown Park Station", "avg_delay": 0, "worst_delay": 0, "observations": 5}}, {"type": "Feature", "geometry": {"type": "Point", "coordinates": [145.11197651, -37.87360157]}, "properties": {"stop_id": "10117", "stop_name": "Jordanville Station", "avg_delay": -60, "worst_delay": -60, "observations": 2}}, {"type": "Feature", "geometry": {"type": "Point", "coordinates": [145.31303994, -37.78467685]}, "properties": {"stop_id": "12167", "stop_name": "Mooroolbark Station", "avg_delay": 120, "worst_delay": 300, "observations": 2}}, {"type": "Feature", "geometry": {"type": "Point", "coordinates": [145.05427919, -37.966429]}, "properties": {"stop_id": "11243", "stop_name": "Cheltenham Station", "avg_delay": 60, "worst_delay": 60, "observations": 2}}, {"type": "Feature", "geometry": {"type": "Point", "coordinates": [145.00103977, -37.8849718]}, "properties": {"stop_id": "14284", "stop_name": "Elsternwick Station", "avg_delay": 0, "worst_delay": 0, "observations": 3}}, {"type": "Feature", "geometry": {"type": "Point", "coordinates": [145.00702429, -37.71666911]}, "properties": {"stop_id": "15376", "stop_name": "Reservoir Station", "avg_delay": 300, "worst_delay": 300, "observations": 2}}, {"type": "Feature", "geometry": {"type": "Point", "coordinates": [145.00769385, -37.82747245]}, "properties": {"stop_id": "12250", "stop_name": "Burnley Station", "avg_delay": 120, "worst_delay": 120, "observations": 1}}, {"type": "Feature", "geometry": {"type": "Point", "coordinates": [145.04239318, -37.87727704]}, "properties": {"stop_id": "14253", "stop_name": "Caulfield Station", "avg_delay": 52, "worst_delay": 120, "observations": 8}}, {"type": "Feature", "geometry": {"type": "Point", "coordinates": [145.20981599, -37.98998732]}, "properties": {"stop_id": "12189", "stop_name": "Dandenong Station", "avg_delay": -9, "worst_delay": 180, "observations": 7}}, {"type": "Feature", "geometry": {"type": "Point", "coordinates": [145.30711451, -37.89244943]}, "properties": {"stop_id": "11246", "stop_name": "Upper Ferntree Gully Station", "avg_delay": 210, "worst_delay": 420, "observations": 2}}, {"type": "Feature", "geometry": {"type": "Point", "coordinates": [144.99377067, -37.80458937]}, "properties": {"stop_id": "14335", "stop_name": "Collingwood Station", "avg_delay": 160, "worst_delay": 300, "observations": 3}}, {"type": "Feature", "geometry": {"type": "Point", "coordinates": [144.96080913, -37.76082064]}, "properties": {"stop_id": "14312", "stop_name": "Anstey Station", "avg_delay": 60, "worst_delay": 60, "observations": 1}}, {"type": "Feature", "geometry": {"type": "Point", "coordinates": [145.04174653, -37.84931168]}, "properties": {"stop_id": "12268", "stop_name": "Tooronga Station", "avg_delay": 300, "worst_delay": 300, "observations": 1}}, {"type": "Feature", "geometry": {"type": "Point", "coordinates": [145.12771544, -37.87522281]}, "properties": {"stop_id": "12163", "stop_name": "Mount Waverley Station", "avg_delay": 240, "worst_delay": 240, "observations": 1}}, {"type": "Feature", "geometry": {"type": "Point", "coordinates": [145.08836657, -37.900301]}, "properties": {"stop_id": "13723", "stop_name": "Oakleigh Station", "avg_delay": -45, "worst_delay": 0, "observations": 4}}, {"type": "Feature", "geometry": {"type": "Point", "coordinates": [144.8242426, -37.77711261]}, "properties": {"stop_id": "15365", "stop_name": "Albion Station", "avg_delay": 0, "worst_delay": 0, "observations": 3}}, {"type": "Feature", "geometry": {"type": "Point", "coordinates": [145.06629137, -37.74317848]}, "properties": {"stop_id": "13760", "stop_name": "Rosanna Station", "avg_delay": 150, "worst_delay": 240, "observations": 2}}, {"type": "Feature", "geometry": {"type": "Point", "coordinates": [144.95562907, -37.81205297]}, "properties": {"stop_id": "10920", "stop_name": "Flagstaff Station", "avg_delay": 0, "worst_delay": 0, "observations": 1}}, {"type": "Feature", "geometry": {"type": "Point", "coordinates": [145.07562705, -37.8440127]}, "properties": {"stop_id": "11201", "stop_name": "Hartwell Station", "avg_delay": -60, "worst_delay": -60, "observations": 2}}, {"type": "Feature", "geometry": {"type": "Point", "coordinates": [145.31307216, -37.78475842]}, "properties": {"stop_id": "12166", "stop_name": "Mooroolbark Station", "avg_delay": -40, "worst_delay": 0, "observations": 3}}, {"type": "Feature", "geometry": {"type": "Point", "coordinates": [145.00150225, -37.93806747]}, "properties": {"stop_id": "14273", "stop_name": "Hampton Station", "avg_delay": 90, "worst_delay": 120, "observations": 2}}, {"type": "Feature", "geometry": {"type": "Point", "coordinates": [145.24991297, -37.81171157]}, "properties": {"stop_id": "12171", "stop_name": "Ringwood East Station", "avg_delay": 300, "worst_delay": 300, "observations": 1}}, {"type": "Feature", "geometry": {"type": "Point", "coordinates": [145.01165979, -37.69561434]}, "properties": {"stop_id": "15372", "stop_name": "Keon Park Station", "avg_delay": 300, "worst_delay": 300, "observations": 2}}, {"type": "Feature", "geometry": {"type": "Point", "coordinates": [145.06765952, -37.64901587]}, "properties": {"stop_id": "26523", "stop_name": "South Morang Station", "avg_delay": 300, "worst_delay": 300, "observations": 2}}, {"type": "Feature", "geometry": {"type": "Point", "coordinates": [144.99854015, -37.75495213]}, "properties": {"stop_id": "15384", "stop_name": "Thornbury Station", "avg_delay": 240, "worst_delay": 240, "observations": 2}}, {"type": "Feature", "geometry": {"type": "Point", "coordinates": [145.04194005, -37.94842614]}, "properties": {"stop_id": "14232", "stop_name": "Highett Station", "avg_delay": 0, "worst_delay": 0, "observations": 1}}, {"type": "Feature", "geometry": {"type": "Point", "coordinates": [145.03666933, -37.93437917]}, "properties": {"stop_id": "14233", "stop_name": "Moorabbin Station", "avg_delay": 90, "worst_delay": 120, "observations": 2}}, {"type": "Feature", "geometry": {"type": "Point", "coordinates": [145.19148194, -37.97797335]}, "properties": {"stop_id": "12191", "stop_name": "Yarraman Station", "avg_delay": 0, "worst_delay": 0, "observations": 6}}, {"type": "Feature", "geometry": {"type": "Point", "coordinates": [144.71984207, -37.62705101]}, "properties": {"stop_id": "15354", "stop_name": "Diggers Rest Station", "avg_delay": 100, "worst_delay": 120, "observations": 3}}, {"type": "Feature", "geometry": {"type": "Point", "coordinates": [145.00768997, -37.82761657]}, "properties": {"stop_id": "12248", "stop_name": "Burnley Station", "avg_delay": 90, "worst_delay": 180, "observations": 2}}, {"type": "Feature", "geometry": {"type": "Point", "coordinates": [144.91979203, -37.682737]}, "properties": {"stop_id": "15530", "stop_name": "Broadmeadows Station", "avg_delay": 480, "worst_delay": 480, "observations": 1}}, {"type": "Feature", "geometry": {"type": "Point", "coordinates": [144.9353458, -37.63827525]}, "properties": {"stop_id": "40219", "stop_name": "Roxburgh Park Station", "avg_delay": 540, "worst_delay": 540, "observations": 1}}, {"type": "Feature", "geometry": {"type": "Point", "coordinates": [145.17587747, -37.96629632]}, "properties": {"stop_id": "12192", "stop_name": "Noble Park Station", "avg_delay": 75, "worst_delay": 120, "observations": 4}}, {"type": "Feature", "geometry": {"type": "Point", "coordinates": [144.95187417, -37.81844914]}, "properties": {"stop_id": "22190", "stop_name": "Southern Cross Station", "avg_delay": 228, "worst_delay": 1380, "observations": 10}}, {"type": "Feature", "geometry": {"type": "Point", "coordinates": [145.28479339, -37.8604938]}, "properties": {"stop_id": "11409", "stop_name": "Boronia Station", "avg_delay": 210, "worst_delay": 420, "observations": 2}}, {"type": "Feature", "geometry": {"type": "Point", "coordinates": [145.05128687, -37.85300263]}, "properties": {"stop_id": "12269", "stop_name": "Gardiner Station", "avg_delay": -60, "worst_delay": -60, "observations": 2}}, {"type": "Feature", "geometry": {"type": "Point", "coordinates": [145.33130331, -37.9035103]}, "properties": {"stop_id": "11123", "stop_name": "Upwey Station", "avg_delay": 140, "worst_delay": 420, "observations": 3}}, {"type": "Feature", "geometry": {"type": "Point", "coordinates": [145.18169298, -37.66400518]}, "properties": {"stop_id": "15336", "stop_name": "Wattle Glen Station", "avg_delay": 150, "worst_delay": 300, "observations": 2}}, {"type": "Feature", "geometry": {"type": "Point", "coordinates": [144.99216989, -37.8385185]}, "properties": {"stop_id": "14294", "stop_name": "South Yarra Station", "avg_delay": -40, "worst_delay": 0, "observations": 3}}, {"type": "Feature", "geometry": {"type": "Point", "coordinates": [145.00769215, -37.8275355]}, "properties": {"stop_id": "12249", "stop_name": "Burnley Station", "avg_delay": 260, "worst_delay": 360, "observations": 3}}, {"type": "Feature", "geometry": {"type": "Point", "coordinates": [144.96652423, -37.8181984]}, "properties": {"stop_id": "11214", "stop_name": "Flinders Street Station", "avg_delay": 420, "worst_delay": 420, "observations": 1}}, {"type": "Feature", "geometry": {"type": "Point", "coordinates": [144.99529893, -37.76990179]}, "properties": {"stop_id": "15387", "stop_name": "Northcote Station", "avg_delay": 90, "worst_delay": 120, "observations": 2}}, {"type": "Feature", "geometry": {"type": "Point", "coordinates": [145.3450326, -38.03983078]}, "properties": {"stop_id": "12178", "stop_name": "Berwick Station", "avg_delay": -60, "worst_delay": -60, "observations": 3}}, {"type": "Feature", "geometry": {"type": "Point", "coordinates": [144.98411092, -37.81648218]}, "properties": {"stop_id": "14341", "stop_name": "Jolimont-MCG Station", "avg_delay": 20, "worst_delay": 120, "observations": 3}}, {"type": "Feature", "geometry": {"type": "Point", "coordinates": [145.15332389, -37.94916432]}, "properties": {"stop_id": "13715", "stop_name": "Springvale Station", "avg_delay": -60, "worst_delay": -60, "observations": 4}}, {"type": "Feature", "geometry": {"type": "Point", "coordinates": [144.98928682, -37.92660375]}, "properties": {"stop_id": "14276", "stop_name": "Brighton Beach Station", "avg_delay": 60, "worst_delay": 60, "observations": 1}}, {"type": "Feature", "geometry": {"type": "Point", "coordinates": [145.12184796, -37.8192734]}, "properties": {"stop_id": "12222", "stop_name": "Box Hill Station", "avg_delay": 210, "worst_delay": 300, "observations": 4}}, {"type": "Feature", "geometry": {"type": "Point", "coordinates": [145.1932336, -37.81804724]}, "properties": {"stop_id": "12232", "stop_name": "Mitcham Station", "avg_delay": 60, "worst_delay": 120, "observations": 2}}, {"type": "Feature", "geometry": {"type": "Point", "coordinates": [145.07594547, -37.9928563]}, "properties": {"stop_id": "11238", "stop_name": "Parkdale Station", "avg_delay": 60, "worst_delay": 60, "observations": 3}}, {"type": "Feature", "geometry": {"type": "Point", "coordinates": [144.92904682, -37.78731986]}, "properties": {"stop_id": "15550", "stop_name": "Newmarket Station", "avg_delay": 1320, "worst_delay": 1320, "observations": 1}}, {"type": "Feature", "geometry": {"type": "Point", "coordinates": [145.06908404, -37.72611047]}, "properties": {"stop_id": "15325", "stop_name": "Macleod Station", "avg_delay": 30, "worst_delay": 60, "observations": 2}}, {"type": "Feature", "geometry": {"type": "Point", "coordinates": [145.4857329, -38.08043442]}, "properties": {"stop_id": "12173", "stop_name": "Pakenham Station", "avg_delay": -30, "worst_delay": 60, "observations": 2}}, {"type": "Feature", "geometry": {"type": "Point", "coordinates": [144.95965388, -37.76774875]}, "properties": {"stop_id": "14314", "stop_name": "Brunswick Station", "avg_delay": 0, "worst_delay": 0, "observations": 3}}, {"type": "Feature", "geometry": {"type": "Point", "coordinates": [145.11663739, -38.05315447]}, "properties": {"stop_id": "11231", "stop_name": "Chelsea Station", "avg_delay": 30, "worst_delay": 60, "observations": 2}}, {"type": "Feature", "geometry": {"type": "Point", "coordinates": [144.91579258, -37.69517482]}, "properties": {"stop_id": "15532", "stop_name": "Jacana Station", "avg_delay": 480, "worst_delay": 480, "observations": 1}}, {"type": "Feature", "geometry": {"type": "Point", "coordinates": [145.04184809, -37.94846066]}, "properties": {"stop_id": "11471", "stop_name": "Highett Station", "avg_delay": 30, "worst_delay": 60, "observations": 2}}, {"type": "Feature", "geometry": {"type": "Point", "coordinates": [145.14073949, -37.82067267]}, "properties": {"stop_id": "12224", "stop_name": "Laburnum Station", "avg_delay": 240, "worst_delay": 360, "observations": 4}}]}